CCSDS_OMM_VERS = 2.0
CREATION_DATE  = 
ORIGINATOR     = 

OBJECT_NAME    = SOYUZ-MS 28
OBJECT_ID      = 2025-275A
CENTER_NAME    = EARTH
REF_FRAME      = TEME
TIME_SYSTEM    = UTC
MEAN_ELEMENT_THEORY = SGP/SGP4

EPOCH          = 2025-12-29T10:28:11.816832
MEAN_MOTION    = 15.49941804
ECCENTRICITY   = .0003287
INCLINATION    = 51.6324
RA_OF_ASC_NODE = 59.7835
ARG_OF_PERICENTER = 318.5609
MEAN_ANOMALY   = 41.5130

EPHEMERIS_TYPE = 0
CLASSIFICATION_TYPE = U
NORAD_CAT_ID   = 66664
ELEMENT_SET_NO = 999
REV_AT_EPOCH   = 54544
BSTAR          = .32897E-3
MEAN_MOTION_DOT = .18325E-3
MEAN_MOTION_DDOT = 0

CCSDS_OMM_VERS = 2.0
CREATION_DATE  = 
ORIGINATOR     = 

OBJECT_NAME    = 1998-067XS
OBJECT_ID      = 1998-067XS
CENTER_NAME    = EARTH
REF_FRAME      = TEME
TIME_SYSTEM    = UTC
MEAN_ELEMENT_THEORY = SGP/SGP4

EPOCH          = 2025-12-29T11:33:10.054368
MEAN_MOTION    = 15.51524554
ECCENTRICITY   = .0002618
INCLINATION    = 51.6326
RA_OF_ASC_NODE = 59.3347
ARG_OF_PERICENTER = 291.4544
MEAN_ANOMALY   = 68.6166

EPHEMERIS_TYPE = 0
CLASSIFICATION_TYPE = U
NORAD_CAT_ID   = 66906
ELEMENT_SET_NO = 999
REV_AT_EPOCH   = 421
BSTAR          = .63864E-3
MEAN_MOTION_DOT = .38202E-3
MEAN_MOTION_DDOT = 0

CCSDS_OMM_VERS = 2.0
CREATION_DATE  = 
ORIGINATOR     = 

OBJECT_NAME    = 1998-067XT
OBJECT_ID      = 1998-067XT
CENTER_NAME    = EARTH
REF_FRAME      = TEME
TIME_SYSTEM    = UTC
MEAN_ELEMENT_THEORY = SGP/SGP4

EPOCH          = 2025-12-29T11:06:25.608096
MEAN_MOTION    = 15.53668810
ECCENTRICITY   = .0003831
INCLINATION    = 51.6312
RA_OF_ASC_NODE = 59.2117
ARG_OF_PERICENTER = 329.8125
MEAN_ANOMALY   = 30.2644

EPHEMERIS_TYPE = 0
CLASSIFICATION_TYPE = U
NORAD_CAT_ID   = 66907
ELEMENT_SET_NO = 999
REV_AT_EPOCH   = 421
BSTAR          = .14194E-2
MEAN_MOTION_DOT = .9303E-3
MEAN_MOTION_DDOT = 0

CCSDS_OMM_VERS = 2.0
CREATION_DATE  = 
ORIGINATOR     = 

OBJECT_NAME    = 1998-067XU
OBJECT_ID      = 1998-067XU
CENTER_NAME    = EARTH
REF_FRAME      = TEME
TIME_SYSTEM    = UTC
MEAN_ELEMENT_THEORY = SGP/SGP4

EPOCH          = 2025-12-29T11:04:43.733856
MEAN_MOTION    = 15.53652803
ECCENTRICITY   = .0003915
INCLINATION    = 51.6310
RA_OF_ASC_NODE = 59.2030
ARG_OF_PERICENTER = 326.0773
MEAN_ANOMALY   = 33.9966

EPHEMERIS_TYPE = 0
CLASSIFICATION_TYPE = U
NORAD_CAT_ID   = 66908
ELEMENT_SET_NO = 999
REV_AT_EPOCH   = 421
BSTAR          = .12402E-2
MEAN_MOTION_DOT = .81056E-3
MEAN_MOTION_DDOT = 0

CCSDS_OMM_VERS = 2.0
CREATION_DATE  = 
ORIGINATOR     = 

OBJECT_NAME    = SILVERSAT
OBJECT_ID      = 1998-067XV
CENTER_NAME    = EARTH
REF_FRAME      = TEME
TIME_SYSTEM    = UTC
MEAN_ELEMENT_THEORY = SGP/SGP4

EPOCH          = 2025-12-29T11:01:07.400352
MEAN_MOTION    = 15.54057234
ECCENTRICITY   = .0003923
INCLINATION    = 51.6306
RA_OF_ASC_NODE = 59.1864
ARG_OF_PERICENTER = 333.3526
MEAN_ANOMALY   = 26.7262

EPHEMERIS_TYPE = 0
CLASSIFICATION_TYPE = U
NORAD_CAT_ID   = 66909
ELEMENT_SET_NO = 999
REV_AT_EPOCH   = 421
BSTAR          = .15171E-2
MEAN_MOTION_DOT = .100989E-2
MEAN_MOTION_DDOT = 0

CCSDS_OMM_VERS = 2.0
CREATION_DATE  = 
ORIGINATOR     = 

OBJECT_NAME    = 1998-067XW
OBJECT_ID      = 1998-067XW
CENTER_NAME    = EARTH
REF_FRAME      = TEME
TIME_SYSTEM    = UTC
MEAN_ELEMENT_THEORY = SGP/SGP4

EPOCH          = 2025-12-29T10:59:11.639040
MEAN_MOTION    = 15.53909102
ECCENTRICITY   = .0003544
INCLINATION    = 51.6309
RA_OF_ASC_NODE = 59.1775
ARG_OF_PERICENTER = 303.1215
MEAN_ANOMALY   = 56.9435

EPHEMERIS_TYPE = 0
CLASSIFICATION_TYPE = U
NORAD_CAT_ID   = 66910
ELEMENT_SET_NO = 999
REV_AT_EPOCH   = 421
BSTAR          = .14242E-2
MEAN_MOTION_DOT = .94181E-3
MEAN_MOTION_DDOT = 0

CCSDS_OMM_VERS = 2.0
CREATION_DATE  = 
ORIGINATOR     = 

OBJECT_NAME    = 1998-067XX
OBJECT_ID      = 1998-067XX
CENTER_NAME    = EARTH
REF_FRAME      = TEME
TIME_SYSTEM    = UTC
MEAN_ELEMENT_THEORY = SGP/SGP4

EPOCH          = 2025-12-29T09:18:45.291744
MEAN_MOTION    = 15.54563017
ECCENTRICITY   = .0003279
INCLINATION    = 51.6308
RA_OF_ASC_NODE = 59.4626
ARG_OF_PERICENTER = 314.1588
MEAN_ANOMALY   = 45.9133

EPHEMERIS_TYPE = 0
CLASSIFICATION_TYPE = U
NORAD_CAT_ID   = 66911
ELEMENT_SET_NO = 999
REV_AT_EPOCH   = 419
BSTAR          = .16734E-2
MEAN_MOTION_DOT = .1137E-2
MEAN_MOTION_DDOT = 0

CCSDS_OMM_VERS = 2.0
CREATION_DATE  = 
ORIGINATOR     = 

OBJECT_NAME    = 1998-067XY
OBJECT_ID      = 1998-067XY
CENTER_NAME    = EARTH
REF_FRAME      = TEME
TIME_SYSTEM    = UTC
MEAN_ELEMENT_THEORY = SGP/SGP4

EPOCH          = 2025-12-29T05:05:25.694880
MEAN_MOTION    = 15.52839707
ECCENTRICITY   = .000397
INCLINATION    = 51.6316
RA_OF_ASC_NODE = 60.5380
ARG_OF_PERICENTER = 318.2962
MEAN_ANOMALY   = 41.7725

EPHEMERIS_TYPE = 0
CLASSIFICATION_TYPE = U
NORAD_CAT_ID   = 66912
ELEMENT_SET_NO = 999
REV_AT_EPOCH   = 416
BSTAR          = .11008E-2
MEAN_MOTION_DOT = .69692E-3
MEAN_MOTION_DDOT = 0

